{"type": "FeatureCollection", "features": [ {"type": "Feature", "properties": {"norad_id": 32440, "name": "FENGYUN 1C DEB", "group": "fengyun-1c-debris", "lat": -54.110046768994145, "lon": -132.08959407746988, "alt_km": 1112.2034873796374, "timestamp": "2025-12-26T15:29:39.725808+00:00", "meta": {"OBJECT_NAME": "FENGYUN 1C DEB", "OBJECT_ID": "1999-025DBC", "EPOCH": "2025-12-24T19:39:57.716928", "MEAN_MOTION": 13.61347688, "ECCENTRICITY": 0.032345, "INCLINATION": 99.1528, "RA_OF_ASC_NODE": 213.3227, "ARG_OF_PERICENTER": 59.5036, "MEAN_ANOMALY": 303.7625, "EPHEMERIS_TYPE": 0, "CLASSIFICATION_TYPE": "U", "NORAD_CAT_ID": 32440, "ELEMENT_SET_NO": 999, "REV_AT_EPOCH": 60450, "BSTAR": 0.0035353506, "MEAN_MOTION_DOT": 3.782e-05, "MEAN_MOTION_DDOT": 0}, "tle": {"line1": "1 32440U 99025DBC 25358.81941802  .00003782  00000+0  35354-2 0  9995", "line2": "2 32440  99.1528 213.3227 0323450  59.5036 303.7625 13.61347688604502"}}, "geometry": {"type": "Point", "coordinates": [-132.08959407746988, -54.110046768994145]}}, {"type": "Feature", "properties": {"norad_id": 32447, "name": "FENGYUN 1C DEB", "group": "fengyun-1c-debris", "lat": 48.582607573696244, "lon": -153.37837860623887, "alt_km": 938.3690577226189, "timestamp": "2025-12-26T15:29:39.725818+00:00", "meta": {"OBJECT_NAME": "FENGYUN 1C DEB", "OBJECT_ID": "1999-025DBK", "EPOCH": "2025-12-09T20:22:18.261408", "MEAN_MOTION": 13.96013309, "ECCENTRICITY": 0.00800272, "INCLINATION": 98.9313, "RA_OF_ASC_NODE": 0.0649, "ARG_OF_PERICENTER": 49.1812, "MEAN_ANOMALY": 311.6255, "EPHEMERIS_TYPE": 0, "CLASSIFICATION_TYPE": "U", "NORAD_CAT_ID": 32447, "ELEMENT_SET_NO": 999, "REV_AT_EPOCH": 67838, "BSTAR": 0.00036340481, "MEAN_MOTION_DOT": 4.69e-06, "MEAN_MOTION_DDOT": 0}, "tle": {"line1": "1 32447U 99025DBK 25343.84882247  .00000469  00000+0  36340-3 0  9992", "line2": "2 32447  98.9313   0.0649 0080027  49.1812 311.6255 13.96013309678386"}}, "geometry": {"type": "Point", "coordinates": [-153.37837860623887, 48.582607573696244]}}, {"type": "Feature", "properties": {"norad_id": 32451, "name": "FENGYUN 1C DEB", "group": "fengyun-1c-debris", "lat": 42.04185059958745, "lon": -27.793779010655197, "alt_km": 992.6552738881137, "timestamp": "2025-12-26T15:29:39.725828+00:00", "meta": {"OBJECT_NAME": "FENGYUN 1C DEB", "OBJECT_ID": "1999-025DBP", "EPOCH": "2025-12-25T18:30:07.545024", "MEAN_MOTION": 13.86635615, "ECCENTRICITY": 0.01849358, "INCLINATION": 99.9724, "RA_OF_ASC_NODE": 340.4028, "ARG_OF_PERICENTER": 160.4925, "MEAN_ANOMALY": 200.3427, "EPHEMERIS_TYPE": 0, "CLASSIFICATION_TYPE": "U", "NORAD_CAT_ID": 32451, "ELEMENT_SET_NO": 999, "REV_AT_EPOCH": 61945, "BSTAR": 0.0017668334, "MEAN_MOTION_DOT": 2.303e-05, "MEAN_MOTION_DDOT": 0}, "tle": {"line1": "1 32451U 99025DBP 25359.77092066  .00002303  00000+0  17668-2 0  9998", "line2": "2 32451  99.9724 340.4028 0184935 160.4925 200.3427 13.86635615619452"}}, "geometry": {"type": "Point", "coordinates": [-27.793779010655197, 42.04185059958745]}}, {"type": "Feature", "properties": {"norad_id": 32453, "name": "FENGYUN 1C DEB", "group": "fengyun-1c-debris", "lat": 22.395818586050343, "lon": -93.15953187204026, "alt_km": 942.5029526984417, "timestamp": "2025-12-26T15:29:39.725838+00:00", "meta": {"OBJECT_NAME": "FENGYUN 1C DEB", "OBJECT_ID": "1999-025DBR", "EPOCH": "2025-12-24T17:08:53.792736", "MEAN_MOTION": 14.02273795, "ECCENTRICITY": 0.00965221, "INCLINATION": 99.3717, "RA_OF_ASC_NODE": 268.7578, "ARG_OF_PERICENTER": 172.8067, "MEAN_ANOMALY": 187.4508, "EPHEMERIS_TYPE": 0, "CLASSIFICATION_TYPE": "U", "NORAD_CAT_ID": 32453, "ELEMENT_SET_NO": 999, "REV_AT_EPOCH": 93596, "BSTAR": 0.00052135269, "MEAN_MOTION_DOT": 7.85e-06, "MEAN_MOTION_DDOT": 0}, "tle": {"line1": "1 32453U 99025DBR 25358.71451149  .00000785  00000+0  52135-3 0  9995", "line2": "2 32453  99.3717 268.7578 0096522 172.8067 187.4508 14.02273795935968"}}, "geometry": {"type": "Point", "coordinates": [-93.15953187204026, 22.395818586050343]}}, {"type": "Feature", "properties": {"norad_id": 32455, "name": "FENGYUN 1C DEB", "group": "fengyun-1c-debris", "lat": -36.33975180863166, "lon": -154.76861659763233, "alt_km": 1070.4466524703412, "timestamp": "2025-12-26T15:29:39.725848+00:00", "meta": {"OBJECT_NAME": "FENGYUN 1C DEB", "OBJECT_ID": "1999-025DBT", "EPOCH": "2025-12-19T18:08:22.954272", "MEAN_MOTION": 13.92504596, "ECCENTRICITY": 0.02356741, "INCLINATION": 101.733, "RA_OF_ASC_NODE": 187.728, "ARG_OF_PERICENTER": 127.7857, "MEAN_ANOMALY": 234.4892, "EPHEMERIS_TYPE": 0, "CLASSIFICATION_TYPE": "U", "NORAD_CAT_ID": 32455, "ELEMENT_SET_NO": 999, "REV_AT_EPOCH": 64513, "BSTAR": 0.001718498, "MEAN_MOTION_DOT": 2.717e-05, "MEAN_MOTION_DDOT": 0}, "tle": {"line1": "1 32455U 99025DBT 25353.75582123  .00002717  00000+0  17185-2 0  9995", "line2": "2 32455 101.7330 187.7280 0235674 127.7857 234.4892 13.92504596645138"}}, "geometry": {"type": "Point", "coordinates": [-154.76861659763233, -36.33975180863166]}}, {"type": "Feature", "properties": {"norad_id": 32456, "name": "FENGYUN 1C DEB", "group": "fengyun-1c-debris", "lat": -56.24107517568751, "lon": -55.66527511061323, "alt_km": 914.7761710547602, "timestamp": "2025-12-26T15:29:39.725858+00:00", "meta": {"OBJECT_NAME": "FENGYUN 1C DEB", "OBJECT_ID": "1999-025DBU", "EPOCH": "2025-12-17T03:48:04.533120", "MEAN_MOTION": 13.35640436, "ECCENTRICITY": 0.03794971, "INCLINATION": 103.6656, "RA_OF_ASC_NODE": 133.0133, "ARG_OF_PERICENTER": 216.4895, "MEAN_ANOMALY": 140.98, "EPHEMERIS_TYPE": 0, "CLASSIFICATION_TYPE": "U", "NORAD_CAT_ID": 32456, "ELEMENT_SET_NO": 999, "REV_AT_EPOCH": 60675, "BSTAR": 0.0016364212, "MEAN_MOTION_DOT": 1.184e-05, "MEAN_MOTION_DDOT": 0}, "tle": {"line1": "1 32456U 99025DBU 25351.15838580  .00001184  00000+0  16364-2 0  9994", "line2": "2 32456 103.6656 133.0133 0379497 216.4895 140.9800 13.35640436606758"}}, "geometry": {"type": "Point", "coordinates": [-55.66527511061323, -56.24107517568751]}}, {"type": "Feature", "properties": {"norad_id": 32458, "name": "FENGYUN 1C DEB", "group": "fengyun-1c-debris", "lat": 63.12026337602409, "lon": -139.8467006011338, "alt_km": 701.8086369664297, "timestamp": "2025-12-26T15:29:39.725868+00:00", "meta": {"OBJECT_NAME": "FENGYUN 1C DEB", "OBJECT_ID": "1999-025DBW", "EPOCH": "2025-12-24T07:08:24.791424", "MEAN_MOTION": 14.62437066, "ECCENTRICITY": 0.00398704, "INCLINATION": 99.044, "RA_OF_ASC_NODE": 19.2699, "ARG_OF_PERICENTER": 338.3215, "MEAN_ANOMALY": 21.6295, "EPHEMERIS_TYPE": 0, "CLASSIFICATION_TYPE": "U", "NORAD_CAT_ID": 32458, "ELEMENT_SET_NO": 999, "REV_AT_EPOCH": 67958, "BSTAR": 0.0016307189, "MEAN_MOTION_DOT": 8.3e-05, "MEAN_MOTION_DDOT": 0}, "tle": {"line1": "1 32458U 99025DBW 25358.29750916  .00008300  00000+0  16307-2 0  9998", "line2": "2 32458  99.0440  19.2699 0039870 338.3215  21.6295 14.62437066679587"}}, "geometry": {"type": "Point", "coordinates": [-139.8467006011338, 63.12026337602409]}}, {"type": "Feature", "properties": {"norad_id": 32459, "name": "FENGYUN 1C DEB", "group": "fengyun-1c-debris", "lat": -70.77149598551726, "lon": 39.270728588597095, "alt_km": 877.1210776223224, "timestamp": "2025-12-26T15:29:39.725878+00:00", "meta": {"OBJECT_NAME": "FENGYUN 1C DEB", "OBJECT_ID": "1999-025DBX", "EPOCH": "2025-12-25T06:33:23.628096", "MEAN_MOTION": 14.42855395, "ECCENTRICITY": 0.0213833, "INCLINATION": 98.3015, "RA_OF_ASC_NODE": 13.1867, "ARG_OF_PERICENTER": 148.4446, "MEAN_ANOMALY": 212.9776, "EPHEMERIS_TYPE": 0, "CLASSIFICATION_TYPE": "U", "NORAD_CAT_ID": 32459, "ELEMENT_SET_NO": 999, "REV_AT_EPOCH": 94731, "BSTAR": 0.00042882, "MEAN_MOTION_DOT": 1.837e-05, "MEAN_MOTION_DDOT": 0}, "tle": {"line1": "1 32459U 99025DBX 25359.27319014  .00001837  00000+0  42882-3 0  9994", "line2": "2 32459  98.3015  13.1867 0213833 148.4446 212.9776 14.42855395947312"}}, "geometry": {"type": "Point", "coordinates": [39.270728588597095, -70.77149598551726]}}, {"type": "Feature", "properties": {"norad_id": 32460, "name": "FENGYUN 1C DEB", "group": "fengyun-1c-debris", "lat": -10.305861661921712, "lon": -37.55685594647641, "alt_km": 966.4487509745259, "timestamp": "2025-12-26T15:29:39.725888+00:00", "meta": {"OBJECT_NAME": "FENGYUN 1C DEB", "OBJECT_ID": "1999-025DBY", "EPOCH": "2025-12-23T15:45:03.737664", "MEAN_MOTION": 13.89610403, "ECCENTRICITY": 0.01859289, "INCLINATION": 98.0212, "RA_OF_ASC_NODE": 141.3333, "ARG_OF_PERICENTER": 93.8399, "MEAN_ANOMALY": 268.4041, "EPHEMERIS_TYPE": 0, "CLASSIFICATION_TYPE": "U", "NORAD_CAT_ID": 32460, "ELEMENT_SET_NO": 999, "REV_AT_EPOCH": 65405, "BSTAR": 0.00093026192, "MEAN_MOTION_DOT": 1.276e-05, "MEAN_MOTION_DDOT": 0}, "tle": {"line1": "1 32460U 99025DBY 25357.65629326  .00001276  00000+0  93026-3 0  9999", "line2": "2 32460  98.0212 141.3333 0185928  93.8399 268.4041 13.89610403654051"}}, "geometry": {"type": "Point", "coordinates": [-37.55685594647641, -10.305861661921712]}}, {"type": "Feature", "properties": {"norad_id": 32461, "name": "FENGYUN 1C DEB", "group": "fengyun-1c-debris", "lat": 4.837118631362253, "lon": 34.74651735234171, "alt_km": 1004.0307256877932, "timestamp": "2025-12-26T15:29:39.725899+00:00", "meta": {"OBJECT_NAME": "FENGYUN 1C DEB", "OBJECT_ID": "1999-025DBZ", "EPOCH": "2025-12-24T02:10:28.329888", "MEAN_MOTION": 13.72863387, "ECCENTRICITY": 0.02328242, "INCLINATION": 98.3337, "RA_OF_ASC_NODE": 211.8091, "ARG_OF_PERICENTER": 86.3573, "MEAN_ANOMALY": 65.2685, "EPHEMERIS_TYPE": 0, "CLASSIFICATION_TYPE": "U", "NORAD_CAT_ID": 32461, "ELEMENT_SET_NO": 999, "REV_AT_EPOCH": 67450, "BSTAR": 0.0012271191, "MEAN_MOTION_DOT": 1.339e-05, "MEAN_MOTION_DDOT": 0}, "tle": {"line1": "1 32461U 99025DBZ 25358.09060567  .00001339  00000+0  12271-2 0  9997", "line2": "2 32461  98.3337 211.8091 0232824  86.3573  65.2685 13.72863387674508"}}, "geometry": {"type": "Point", "coordinates": [34.74651735234171, 4.837118631362253]}}]}